STARLINK-1334
1 15556C 20025AB  21326.15898961  .00003463  00000-0  23209-3 0  3264
2 15556  53.0541 288.0372 0001782  60.4055  59.6451 15.06385277    18
